[{"OBJECT_NAME":"STARLINK-32149","OBJECT_ID":"2024-132Q","EPOCH":"2026-03-09T22:07:38.055072","MEAN_MOTION":15.30186437,"ECCENTRICITY":0.0001275,"INCLINATION":53.1616,"RA_OF_ASC_NODE":51.5165,"ARG_OF_PERICENTER":103.1542,"MEAN_ANOMALY":256.9601,"EPHEMERIS_TYPE":0,"CLASSIFICATION_TYPE":"U","NORAD_CAT_ID":60292,"ELEMENT_SET_NO":999,"REV_AT_EPOCH":9159,"BSTAR":2.2871411e-5,"MEAN_MOTION_DOT":3.18e-6,"MEAN_MOTION_DDOT":0},{"OBJECT_NAME":"KUIPER-00276","OBJECT_ID":"2026-030AG","EPOCH":"2026-03-09T22:00:01.999584","MEAN_MOTION":15.30162454,"ECCENTRICITY":0.00186471,"INCLINATION":51.8824,"RA_OF_ASC_NODE":218.7283,"ARG_OF_PERICENTER":66.9346,"MEAN_ANOMALY":101.1527,"EPHEMERIS_TYPE":0,"CLASSIFICATION_TYPE":"U","NORAD_CAT_ID":67794,"ELEMENT_SET_NO":999,"REV_AT_EPOCH":482,"BSTAR":0.0021152378,"MEAN_MOTION_DOT":0.00063116,"MEAN_MOTION_DDOT":0}]
